0 INTELSAT 9 (PAS 9)
1 26451U 00043A   13282.31502154 -.00000282  00000-0  10000-3 0  1249
2 26451 000.8148 078.8662 0002443 112.8444 256.7443 01.00271343 48380
0 INTELSAT 9 (PAS 9)
1 26451U 00043A   13285.20802468 -.00000291  00000-0  10000-3 0  1252
2 26451 000.8213 078.8239 0002374 114.3128 219.6344 01.00270237 48415
0 INTELSAT 9 (PAS 9)
1 26451U 00043A   13288.07977722 -.00000293  00000-0  10000-3 0  1269
2 26451 000.8275 078.7909 0002315 115.1100 175.5051 01.00269144 48443
0 INTELSAT 9 (PAS 9)
1 26451U 00043A   13290.20880579 -.00000291  00000-0  10000-3 0  1279
2 26451 000.8320 078.7639 0002328 114.9134 224.2582 01.00268483 48460
0 INTELSAT 9 (PAS 9)
1 26451U 00043A   13291.38129568 -.00000288  00000-0  10000-3 0  1280
2 26451 000.8362 078.8139 0002449 120.8673 281.5314 01.00272866 48470
0 INTELSAT 9 (PAS 9)
1 26451U 00043A   13293.05867995 -.00000285  00000-0  10000-3 0  1297
2 26451 000.8399 078.7782 0002419 120.6341 167.3230 01.00272963 48498
0 INTELSAT 9 (PAS 9)
1 26451U 00043A   13294.05446432 -.00000283  00000-0  10000-3 0  1307
2 26451 000.8421 078.7579 0002402 120.3570 167.0928 01.00273010 48508
0 INTELSAT 9 (PAS 9)
1 26451U 00043A   13295.21252558 -.00000281  00000-0  10000-3 0  1319
2 26451 000.8445 078.7420 0002422 120.3809 225.1347 01.00272765 48514
